[{"OBJECT_NAME":"TDRS 3","OBJECT_ID":"1988-091B","EPOCH":"2026-04-25T11:39:48.574368","MEAN_MOTION":1.00275272,"ECCENTRICITY":0.0041033,"INCLINATION":12.6422,"RA_OF_ASC_NODE":341.3539,"ARG_OF_PERICENTER":355.9255,"MEAN_ANOMALY":2.3192,"EPHEMERIS_TYPE":0,"CLASSIFICATION_TYPE":"U","NORAD_CAT_ID":19548,"ELEMENT_SET_NO":999,"REV_AT_EPOCH":12485,"BSTAR":0,"MEAN_MOTION_DOT":-3.13e-6,"MEAN_MOTION_DDOT":0},{"OBJECT_NAME":"HST","OBJECT_ID":"1990-037B","EPOCH":"2026-04-25T14:02:48.111648","MEAN_MOTION":15.30144545,"ECCENTRICITY":0.00016451,"INCLINATION":28.4745,"RA_OF_ASC_NODE":79.9164,"ARG_OF_PERICENTER":280.6914,"MEAN_ANOMALY":79.3497,"EPHEMERIS_TYPE":0,"CLASSIFICATION_TYPE":"U","NORAD_CAT_ID":20580,"ELEMENT_SET_NO":999,"REV_AT_EPOCH":78050,"BSTAR":0.00020815249,"MEAN_MOTION_DOT":6.48e-5,"MEAN_MOTION_DDOT":0},{"OBJECT_NAME":"TDRS 5","OBJECT_ID":"1991-054B","EPOCH":"2026-04-25T09:18:34.216128","MEAN_MOTION":1.00270227,"ECCENTRICITY":0.00080923,"INCLINATION":14.0786,"RA_OF_ASC_NODE":354.1737,"ARG_OF_PERICENTER":285.1594,"MEAN_ANOMALY":266.0118,"EPHEMERIS_TYPE":0,"CLASSIFICATION_TYPE":"U","NORAD_CAT_ID":21639,"ELEMENT_SET_NO":999,"REV_AT_EPOCH":12718,"BSTAR":0,"MEAN_MOTION_DOT":7.1e-7,"MEAN_MOTION_DDOT":0},{"OBJECT_NAME":"TDRS 6","OBJECT_ID":"1993-003B","EPOCH":"2026-04-25T03:42:58.683168","MEAN_MOTION":1.00274136,"ECCENTRICITY":0.00059115,"INCLINATION":14.1825,"RA_OF_ASC_NODE":357.4542,"ARG_OF_PERICENTER":179.4928,"MEAN_ANOMALY":46.2104,"EPHEMERIS_TYPE":0,"CLASSIFICATION_TYPE":"U","NORAD_CAT_ID":22314,"ELEMENT_SET_NO":999,"REV_AT_EPOCH":12187,"BSTAR":0,"MEAN_MOTION_DOT":-3.08e-6,"MEAN_MOTION_DDOT":0},{"OBJECT_NAME":"TDRS 7","OBJECT_ID":"1995-035B","EPOCH":"2026-04-25T22:48:44.647200","MEAN_MOTION":1.00278334,"ECCENTRICITY":0.00109059,"INCLINATION":13.3994,"RA_OF_ASC_NODE":348.5502,"ARG_OF_PERICENTER":64.5191,"MEAN_ANOMALY":232.1375,"EPHEMERIS_TYPE":0,"CLASSIFICATION_TYPE":"U","NORAD_CAT_ID":23613,"ELEMENT_SET_NO":999,"REV_AT_EPOCH":11272,"BSTAR":0,"MEAN_MOTION_DOT":-2.53e-6,"MEAN_MOTION_DDOT":0},{"OBJECT_NAME":"ISS (ZARYA)","OBJECT_ID":"1998-067A","EPOCH":"2026-04-25T14:51:50.576832","MEAN_MOTION":15.48952974,"ECCENTRICITY":0.00069494,"INCLINATION":51.632,"RA_OF_ASC_NODE":200.2872,"ARG_OF_PERICENTER":349.7097,"MEAN_ANOMALY":10.3748,"EPHEMERIS_TYPE":0,"CLASSIFICATION_TYPE":"U","NORAD_CAT_ID":25544,"ELEMENT_SET_NO":999,"REV_AT_EPOCH":56360,"BSTAR":0.00019456761,"MEAN_MOTION_DOT":0.00010271,"MEAN_MOTION_DDOT":0},{"OBJECT_NAME":"TERRA","OBJECT_ID":"1999-068A","EPOCH":"2026-04-25T21:35:55.379328","MEAN_MOTION":14.61060188,"ECCENTRICITY":0.00032127,"INCLINATION":97.9503,"RA_OF_ASC_NODE":167.5082,"ARG_OF_PERICENTER":56.7601,"MEAN_ANOMALY":355.4269,"EPHEMERIS_TYPE":0,"CLASSIFICATION_TYPE":"U","NORAD_CAT_ID":25994,"ELEMENT_SET_NO":999,"REV_AT_EPOCH":40197,"BSTAR":8.5264945e-5,"MEAN_MOTION_DOT":3.74e-6,"MEAN_MOTION_DDOT":0},{"OBJECT_NAME":"TDRS 8","OBJECT_ID":"2000-034A","EPOCH":"2026-04-25T22:07:10.527168","MEAN_MOTION":1.00277059,"ECCENTRICITY":0.00062281,"INCLINATION":12.6032,"RA_OF_ASC_NODE":31.7606,"ARG_OF_PERICENTER":344.884,"MEAN_ANOMALY":253.7365,"EPHEMERIS_TYPE":0,"CLASSIFICATION_TYPE":"U","NORAD_CAT_ID":26388,"ELEMENT_SET_NO":999,"REV_AT_EPOCH":9465,"BSTAR":0,"MEAN_MOTION_DOT":-2.04e-6,"MEAN_MOTION_DDOT":0},{"OBJECT_NAME":"TIMED","OBJECT_ID":"2001-055B","EPOCH":"2026-04-25T18:04:27.602400","MEAN_MOTION":14.9516643,"ECCENTRICITY":0.00017773,"INCLINATION":74.0685,"RA_OF_ASC_NODE":340.5874,"ARG_OF_PERICENTER":212.0989,"MEAN_ANOMALY":148.0088,"EPHEMERIS_TYPE":0,"CLASSIFICATION_TYPE":"U","NORAD_CAT_ID":26998,"ELEMENT_SET_NO":999,"REV_AT_EPOCH":32298,"BSTAR":8.9382572e-5,"MEAN_MOTION_DOT":9.42e-6,"MEAN_MOTION_DDOT":0},{"OBJECT_NAME":"AQUA","OBJECT_ID":"2002-022A","EPOCH":"2026-04-25T21:44:57.562656","MEAN_MOTION":14.62073962,"ECCENTRICITY":0.0002029,"INCLINATION":98.4243,"RA_OF_ASC_NODE":84.1595,"ARG_OF_PERICENTER":96.0287,"MEAN_ANOMALY":320.5003,"EPHEMERIS_TYPE":0,"CLASSIFICATION_TYPE":"U","NORAD_CAT_ID":27424,"ELEMENT_SET_NO":999,"REV_AT_EPOCH":27563,"BSTAR":0.00017917613,"MEAN_MOTION_DOT":8.5e-6,"MEAN_MOTION_DDOT":0},{"OBJECT_NAME":"SORCE","OBJECT_ID":"2003-004A","EPOCH":"2026-04-25T16:01:04.200672","MEAN_MOTION":15.03418116,"ECCENTRICITY":0.00165362,"INCLINATION":39.9899,"RA_OF_ASC_NODE":201.2547,"ARG_OF_PERICENTER":31.4179,"MEAN_ANOMALY":328.7599,"EPHEMERIS_TYPE":0,"CLASSIFICATION_TYPE":"U","NORAD_CAT_ID":27651,"ELEMENT_SET_NO":999,"REV_AT_EPOCH":26399,"BSTAR":0.00021142399,"MEAN_MOTION_DOT":2.783e-5,"MEAN_MOTION_DDOT":0},{"OBJECT_NAME":"AURA","OBJECT_ID":"2004-026A","EPOCH":"2026-04-25T21:04:09.242400","MEAN_MOTION":14.61245577,"ECCENTRICITY":0.000169,"INCLINATION":98.3381,"RA_OF_ASC_NODE":71.9138,"ARG_OF_PERICENTER":85.3753,"MEAN_ANOMALY":274.764,"EPHEMERIS_TYPE":0,"CLASSIFICATION_TYPE":"U","NORAD_CAT_ID":28376,"ELEMENT_SET_NO":999,"REV_AT_EPOCH":15857,"BSTAR":0.00018284618,"MEAN_MOTION_DOT":8.53e-6,"MEAN_MOTION_DDOT":0},{"OBJECT_NAME":"SWIFT","OBJECT_ID":"2004-047A","EPOCH":"2026-04-25T15:04:44.203296","MEAN_MOTION":15.63536129,"ECCENTRICITY":0.00016045,"INCLINATION":20.5525,"RA_OF_ASC_NODE":228.8093,"ARG_OF_PERICENTER":312.5282,"MEAN_ANOMALY":47.5027,"EPHEMERIS_TYPE":0,"CLASSIFICATION_TYPE":"U","NORAD_CAT_ID":28485,"ELEMENT_SET_NO":999,"REV_AT_EPOCH":17861,"BSTAR":0.00043687517,"MEAN_MOTION_DOT":0.00043357,"MEAN_MOTION_DDOT":0},{"OBJECT_NAME":"THEMIS A","OBJECT_ID":"2007-004A","EPOCH":"2026-04-25T03:12:14.314464","MEAN_MOTION":0.87844718,"ECCENTRICITY":0.83827397,"INCLINATION":7.6046,"RA_OF_ASC_NODE":114.3962,"ARG_OF_PERICENTER":188.7831,"MEAN_ANOMALY":127.5791,"EPHEMERIS_TYPE":0,"CLASSIFICATION_TYPE":"U","NORAD_CAT_ID":30580,"ELEMENT_SET_NO":999,"REV_AT_EPOCH":4081,"BSTAR":0.0041252044,"MEAN_MOTION_DOT":6.3e-7,"MEAN_MOTION_DDOT":0},{"OBJECT_NAME":"THEMIS D","OBJECT_ID":"2007-004D","EPOCH":"2026-04-24T07:08:22.987392","MEAN_MOTION":0.87834113,"ECCENTRICITY":0.8339467,"INCLINATION":7.1883,"RA_OF_ASC_NODE":82.6457,"ARG_OF_PERICENTER":223.1112,"MEAN_ANOMALY":208.3988,"EPHEMERIS_TYPE":0,"CLASSIFICATION_TYPE":"U","NORAD_CAT_ID":30797,"ELEMENT_SET_NO":999,"REV_AT_EPOCH":4060,"BSTAR":0,"MEAN_MOTION_DOT":-1.7e-7,"MEAN_MOTION_DDOT":0},{"OBJECT_NAME":"THEMIS E","OBJECT_ID":"2007-004E","EPOCH":"2026-04-25T21:48:16.660224","MEAN_MOTION":0.8833206,"ECCENTRICITY":0.84485827,"INCLINATION":5.7203,"RA_OF_ASC_NODE":101.2036,"ARG_OF_PERICENTER":206.1427,"MEAN_ANOMALY":77.7905,"EPHEMERIS_TYPE":0,"CLASSIFICATION_TYPE":"U","NORAD_CAT_ID":30798,"ELEMENT_SET_NO":999,"REV_AT_EPOCH":6546,"BSTAR":0,"MEAN_MOTION_DOT":3.2e-7,"MEAN_MOTION_DDOT":0},{"OBJECT_NAME":"FGRST (GLAST)","OBJECT_ID":"2008-029A","EPOCH":"2026-04-25T13:53:41.975520","MEAN_MOTION":15.23657127,"ECCENTRICITY":0.00087116,"INCLINATION":25.5812,"RA_OF_ASC_NODE":209.6846,"ARG_OF_PERICENTER":67.841,"MEAN_ANOMALY":292.3052,"EPHEMERIS_TYPE":0,"CLASSIFICATION_TYPE":"U","NORAD_CAT_ID":33053,"ELEMENT_SET_NO":999,"REV_AT_EPOCH":98780,"BSTAR":0.00011872811,"MEAN_MOTION_DOT":3.267e-5,"MEAN_MOTION_DDOT":0}]
